[
  {
    "OBJECT_NAME": "STARLINK-32244",
    "OBJECT_ID": "24141P",
    "EPOCH": "2025-11-11T07:30:37.638432",
    "MEAN_MOTION": 15.30168134,
    "ECCENTRICITY": 0.0001839,
    "INCLINATION": 53.1611,
    "RA_OF_ASC_NODE": 72.6464,
    "ARG_OF_PERICENTER": 83.8715,
    "MEAN_ANOMALY": 276.2495,
    "EPHEMERIS_TYPE": 0,
    "CLASSIFICATION_TYPE": "U",
    "NORAD_CAT_ID": 60411,
    "ELEMENT_SET_NO": 999,
    "REV_AT_EPOCH": 7145,
    "BSTAR": 0.00056314,
    "MEAN_MOTION_DOT": 0.0001634,
    "MEAN_MOTION_DDOT": 0.0,
    "TLE_LINE1": "1 60411U 24141P   25315.31293563  .00016340  00000+0  56314-3 0  9997",
    "TLE_LINE2": "2 60411  53.1611  72.6464 0001839  83.8715 276.2495 15.30168134 71457",
    "COMMENT": "Grouped by shell and plane from TLE"
  },
  {
    "OBJECT_NAME": "STARLINK-32186",
    "OBJECT_ID": "24141Q",
    "EPOCH": "2025-11-11T07:26:03.111936",
    "MEAN_MOTION": 15.30190296,
    "ECCENTRICITY": 3.14e-05,
    "INCLINATION": 53.162,
    "RA_OF_ASC_NODE": 72.625,
    "ARG_OF_PERICENTER": 28.236,
    "MEAN_ANOMALY": 331.8658,
    "EPHEMERIS_TYPE": 0,
    "CLASSIFICATION_TYPE": "U",
    "NORAD_CAT_ID": 60412,
    "ELEMENT_SET_NO": 999,
    "REV_AT_EPOCH": 7139,
    "BSTAR": 0.0,
    "MEAN_MOTION_DOT": -4.526e-05,
    "MEAN_MOTION_DDOT": 0.0,
    "TLE_LINE1": "1 60412U 24141Q   25315.30975824 -.00004526  00000+0 -14085-3 0  9998",
    "TLE_LINE2": "2 60412  53.1620  72.6250 0000314  28.2360 331.8658 15.30190296 71393",
    "COMMENT": "Grouped by shell and plane from TLE"
  },
  {
    "OBJECT_NAME": "STARLINK-32178",
    "OBJECT_ID": "24141R",
    "EPOCH": "2025-11-11T07:12:22.633344",
    "MEAN_MOTION": 15.30196358,
    "ECCENTRICITY": 8.7e-05,
    "INCLINATION": 53.1606,
    "RA_OF_ASC_NODE": 72.566,
    "ARG_OF_PERICENTER": 80.0725,
    "MEAN_ANOMALY": 280.0374,
    "EPHEMERIS_TYPE": 0,
    "CLASSIFICATION_TYPE": "U",
    "NORAD_CAT_ID": 60413,
    "ELEMENT_SET_NO": 999,
    "REV_AT_EPOCH": 7139,
    "BSTAR": 0.00010112000000000001,
    "MEAN_MOTION_DOT": 2.637e-05,
    "MEAN_MOTION_DDOT": 0.0,
    "TLE_LINE1": "1 60413U 24141R   25315.30026196  .00002637  00000+0  10112-3 0  9994",
    "TLE_LINE2": "2 60413  53.1606  72.5660 0000870  80.0725 280.0374 15.30196358 71395",
    "COMMENT": "Grouped by shell and plane from TLE"
  },
  {
    "OBJECT_NAME": "STARLINK-32234",
    "OBJECT_ID": "24141S",
    "EPOCH": "2025-11-11T07:21:28.997568",
    "MEAN_MOTION": 15.30189666,
    "ECCENTRICITY": 7.93e-05,
    "INCLINATION": 53.1624,
    "RA_OF_ASC_NODE": 72.6056,
    "ARG_OF_PERICENTER": 88.4668,
    "MEAN_ANOMALY": 271.6423,
    "EPHEMERIS_TYPE": 0,
    "CLASSIFICATION_TYPE": "U",
    "NORAD_CAT_ID": 60414,
    "ELEMENT_SET_NO": 999,
    "REV_AT_EPOCH": 7145,
    "BSTAR": 2.5424999999999998e-05,
    "MEAN_MOTION_DOT": 3.94e-06,
    "MEAN_MOTION_DDOT": 0.0,
    "TLE_LINE1": "1 60414U 24141S   25315.30658562  .00000394  00000+0  25425-4 0  9995",
    "TLE_LINE2": "2 60414  53.1624  72.6056 0000793  88.4668 271.6423 15.30189666 71450",
    "COMMENT": "Grouped by shell and plane from TLE"
  },
  {
    "OBJECT_NAME": "STARLINK-32265",
    "OBJECT_ID": "24141T",
    "EPOCH": "2025-11-11T07:16:55.413696",
    "MEAN_MOTION": 15.30192001,
    "ECCENTRICITY": 8.4e-05,
    "INCLINATION": 53.1581,
    "RA_OF_ASC_NODE": 72.5863,
    "ARG_OF_PERICENTER": 83.3629,
    "MEAN_ANOMALY": 276.7468,
    "EPHEMERIS_TYPE": 0,
    "CLASSIFICATION_TYPE": "U",
    "NORAD_CAT_ID": 60415,
    "ELEMENT_SET_NO": 999,
    "REV_AT_EPOCH": 7145,
    "BSTAR": 1.6453000000000003e-05,
    "MEAN_MOTION_DOT": 1.28e-06,
    "MEAN_MOTION_DDOT": 0.0,
    "TLE_LINE1": "1 60415U 24141T   25315.30341914  .00000128  00000+0  16453-4 0  9992",
    "TLE_LINE2": "2 60415  53.1581  72.5863 0000840  83.3629 276.7468 15.30192001 71454",
    "COMMENT": "Grouped by shell and plane from TLE"
  },
  {
    "OBJECT_NAME": "STARLINK-32255",
    "OBJECT_ID": "24141V",
    "EPOCH": "2025-11-11T07:03:14.563584",
    "MEAN_MOTION": 15.30199581,
    "ECCENTRICITY": 7.74e-05,
    "INCLINATION": 53.1584,
    "RA_OF_ASC_NODE": 72.5249,
    "ARG_OF_PERICENTER": 74.3596,
    "MEAN_ANOMALY": 285.749,
    "EPHEMERIS_TYPE": 0,
    "CLASSIFICATION_TYPE": "U",
    "NORAD_CAT_ID": 60417,
    "ELEMENT_SET_NO": 999,
    "REV_AT_EPOCH": 7145,
    "BSTAR": 5.0737e-05,
    "MEAN_MOTION_DOT": 1.144e-05,
    "MEAN_MOTION_DDOT": 0.0,
    "TLE_LINE1": "1 60417U 24141V   25315.29391856  .00001144  00000+0  50737-4 0  9994",
    "TLE_LINE2": "2 60417  53.1584  72.5249 0000774  74.3596 285.7490 15.30199581 71451",
    "COMMENT": "Grouped by shell and plane from TLE"
  },
  {
    "OBJECT_NAME": "STARLINK-32236",
    "OBJECT_ID": "24141W",
    "EPOCH": "2025-11-11T06:57:10.250208",
    "MEAN_MOTION": 15.30196765,
    "ECCENTRICITY": 0.000136,
    "INCLINATION": 53.1628,
    "RA_OF_ASC_NODE": 72.4958,
    "ARG_OF_PERICENTER": 53.8171,
    "MEAN_ANOMALY": 306.2956,
    "EPHEMERIS_TYPE": 0,
    "CLASSIFICATION_TYPE": "U",
    "NORAD_CAT_ID": 60418,
    "ELEMENT_SET_NO": 999,
    "REV_AT_EPOCH": 7145,
    "BSTAR": 6.382100000000001e-05,
    "MEAN_MOTION_DOT": 1.531e-05,
    "MEAN_MOTION_DDOT": 0.0,
    "TLE_LINE1": "1 60418U 24141W   25315.28970197  .00001531  00000+0  63821-4 0  9993",
    "TLE_LINE2": "2 60418  53.1628  72.4958 0001360  53.8171 306.2956 15.30196765 71457",
    "COMMENT": "Grouped by shell and plane from TLE"
  },
  {
    "OBJECT_NAME": "STARLINK-32311",
    "OBJECT_ID": "24222A",
    "EPOCH": "2025-11-11T00:33:15.816672",
    "MEAN_MOTION": 15.27593362,
    "ECCENTRICITY": 0.0001109,
    "INCLINATION": 42.9994,
    "RA_OF_ASC_NODE": 71.3676,
    "ARG_OF_PERICENTER": 294.2517,
    "MEAN_ANOMALY": 65.8218,
    "EPHEMERIS_TYPE": 0,
    "CLASSIFICATION_TYPE": "U",
    "NORAD_CAT_ID": 62114,
    "ELEMENT_SET_NO": 999,
    "REV_AT_EPOCH": 5493,
    "BSTAR": 0.0010494,
    "MEAN_MOTION_DOT": 0.00028739,
    "MEAN_MOTION_DDOT": 0.0,
    "TLE_LINE1": "1 62114U 24222A   25315.02309973  .00028739  00000+0  10494-2 0  9993",
    "TLE_LINE2": "2 62114  42.9994  71.3676 0001109 294.2517  65.8218 15.27593362 54938",
    "COMMENT": "Grouped by shell and plane from TLE"
  },
  {
    "OBJECT_NAME": "STARLINK-32557",
    "OBJECT_ID": "24222P",
    "EPOCH": "2025-11-11T00:54:56.023488",
    "MEAN_MOTION": 15.27556148,
    "ECCENTRICITY": 0.0001209,
    "INCLINATION": 43.002,
    "RA_OF_ASC_NODE": 75.6568,
    "ARG_OF_PERICENTER": 283.0908,
    "MEAN_ANOMALY": 76.9809,
    "EPHEMERIS_TYPE": 0,
    "CLASSIFICATION_TYPE": "U",
    "NORAD_CAT_ID": 62127,
    "ELEMENT_SET_NO": 999,
    "REV_AT_EPOCH": 5477,
    "BSTAR": 0.0015398999999999999,
    "MEAN_MOTION_DOT": 0.00042324,
    "MEAN_MOTION_DDOT": 0.0,
    "TLE_LINE1": "1 62127U 24222P   25315.03814842  .00042324  00000+0  15399-2 0  9999",
    "TLE_LINE2": "2 62127  43.0020  75.6568 0001209 283.0908  76.9809 15.27556148 54774",
    "COMMENT": "Grouped by shell and plane from TLE"
  },
  {
    "OBJECT_NAME": "STARLINK-32921",
    "OBJECT_ID": "25027P",
    "EPOCH": "2025-11-11T01:51:23.424480",
    "MEAN_MOTION": 15.27633492,
    "ECCENTRICITY": 0.0004018,
    "INCLINATION": 43.0102,
    "RA_OF_ASC_NODE": 78.597,
    "ARG_OF_PERICENTER": 275.6756,
    "MEAN_ANOMALY": 84.3638,
    "EPHEMERIS_TYPE": 0,
    "CLASSIFICATION_TYPE": "U",
    "NORAD_CAT_ID": 62920,
    "ELEMENT_SET_NO": 999,
    "REV_AT_EPOCH": 4340,
    "BSTAR": 0.0013991000000000001,
    "MEAN_MOTION_DOT": 0.00038507,
    "MEAN_MOTION_DDOT": 0.0,
    "TLE_LINE1": "1 62920U 25027P   25315.07735445  .00038507  00000+0  13991-2 0  9993",
    "TLE_LINE2": "2 62920  43.0102  78.5970 0004018 275.6756  84.3638 15.27633492 43403",
    "COMMENT": "Grouped by shell and plane from TLE"
  },
  {
    "OBJECT_NAME": "STARLINK-32905",
    "OBJECT_ID": "25027S",
    "EPOCH": "2025-11-11T00:54:14.560128",
    "MEAN_MOTION": 15.27619984,
    "ECCENTRICITY": 0.0003329,
    "INCLINATION": 43.0024,
    "RA_OF_ASC_NODE": 79.1579,
    "ARG_OF_PERICENTER": 277.5787,
    "MEAN_ANOMALY": 82.4686,
    "EPHEMERIS_TYPE": 0,
    "CLASSIFICATION_TYPE": "U",
    "NORAD_CAT_ID": 62923,
    "ELEMENT_SET_NO": 999,
    "REV_AT_EPOCH": 4339,
    "BSTAR": 0.0013316,
    "MEAN_MOTION_DOT": 0.00036611,
    "MEAN_MOTION_DDOT": 0.0,
    "TLE_LINE1": "1 62923U 25027S   25315.03766852  .00036611  00000+0  13316-2 0  9993",
    "TLE_LINE2": "2 62923  43.0024  79.1579 0003329 277.5787  82.4686 15.27619984 43390",
    "COMMENT": "Grouped by shell and plane from TLE"
  },
  {
    "OBJECT_NAME": "STARLINK-32922",
    "OBJECT_ID": "25027V",
    "EPOCH": "2025-11-11T00:48:41.217696",
    "MEAN_MOTION": 15.27631344,
    "ECCENTRICITY": 0.0002331,
    "INCLINATION": 43.0009,
    "RA_OF_ASC_NODE": 79.1268,
    "ARG_OF_PERICENTER": 279.5195,
    "MEAN_ANOMALY": 80.5393,
    "EPHEMERIS_TYPE": 0,
    "CLASSIFICATION_TYPE": "U",
    "NORAD_CAT_ID": 62926,
    "ELEMENT_SET_NO": 999,
    "REV_AT_EPOCH": 4339,
    "BSTAR": 0.001283,
    "MEAN_MOTION_DOT": 0.00035269,
    "MEAN_MOTION_DDOT": 0.0,
    "TLE_LINE1": "1 62926U 25027V   25315.03381039  .00035269  00000+0  12830-2 0  9994",
    "TLE_LINE2": "2 62926  43.0009  79.1268 0002331 279.5195  80.5393 15.27631344 43396",
    "COMMENT": "Grouped by shell and plane from TLE"
  },
  {
    "OBJECT_NAME": "STARLINK-34252",
    "OBJECT_ID": "25124P",
    "EPOCH": "2025-11-11T07:25:07.936032",
    "MEAN_MOTION": 15.27615468,
    "ECCENTRICITY": 3.5e-05,
    "INCLINATION": 43.0001,
    "RA_OF_ASC_NODE": 70.438,
    "ARG_OF_PERICENTER": 92.4519,
    "MEAN_ANOMALY": 267.6373,
    "EPHEMERIS_TYPE": 0,
    "CLASSIFICATION_TYPE": "U",
    "NORAD_CAT_ID": 64330,
    "ELEMENT_SET_NO": 999,
    "REV_AT_EPOCH": 2367,
    "BSTAR": 0.0019062000000000003,
    "MEAN_MOTION_DOT": 0.00052623,
    "MEAN_MOTION_DDOT": 0.0,
    "TLE_LINE1": "1 64330U 25124P   25315.30911963  .00052623  00000+0  19062-2 0  9995",
    "TLE_LINE2": "2 64330  43.0001  70.4380 0000350  92.4519 267.6373 15.27615468 23673",
    "COMMENT": "Grouped by shell and plane from TLE"
  }
]